YAM-7                   
1 60504U 24149AN  26068.71799904  .00009009  00000+0  30984-3 0  9997
2 60504  97.3828 149.4631 0001973 296.5121  63.5918 15.30304554 86835
STARLINK-34226          
1 64494U 25133Y   26068.45702711  .00016612  00000+0  57171-3 0  9999
2 64494  53.1600 117.8139 0001045  85.5253 274.5868 15.30201777 40986
